{"type": "FeatureCollection", "features": [ {"type": "Feature", "properties": {"norad_id": 33867, "name": "IRIDIUM 33 DEB", "group": "iridium-33-debris", "lat": -62.26473930307472, "lon": -18.106411491993967, "alt_km": 365.81842756698825, "timestamp": "2025-12-15T04:01:20.836870+00:00", "meta": {"OBJECT_NAME": "IRIDIUM 33 DEB", "OBJECT_ID": "1997-051AL", "EPOCH": "2025-12-14T06:53:51.823968", "MEAN_MOTION": 15.71039359, "ECCENTRICITY": 0.00132583, "INCLINATION": 86.3644, "RA_OF_ASC_NODE": 349.299, "ARG_OF_PERICENTER": 90.1436, "MEAN_ANOMALY": 270.1354, "EPHEMERIS_TYPE": 0, "CLASSIFICATION_TYPE": "U", "NORAD_CAT_ID": 33867, "ELEMENT_SET_NO": 999, "REV_AT_EPOCH": 89535, "BSTAR": 0.0077013434, "MEAN_MOTION_DOT": 0.0107518, "MEAN_MOTION_DDOT": 0}, "tle": {"line1": "1 33867U 97051AL  25348.28740537  .01075180  00000+0  77013-2 0  9998", "line2": "2 33867  86.3644 349.2990 0013258  90.1436 270.1354 15.71039359895353"}}, "geometry": {"type": "Point", "coordinates": [-18.106411491993967, -62.26473930307472]}}, {"type": "Feature", "properties": {"norad_id": 33870, "name": "IRIDIUM 33 DEB", "group": "iridium-33-debris", "lat": -4.684155877645186, "lon": 56.922475917615564, "alt_km": 758.1599735018826, "timestamp": "2025-12-15T04:01:20.836880+00:00", "meta": {"OBJECT_NAME": "IRIDIUM 33 DEB", "OBJECT_ID": "1997-051AP", "EPOCH": "2025-12-14T05:02:13.504992", "MEAN_MOTION": 14.45862861, "ECCENTRICITY": 0.00216247, "INCLINATION": 86.3748, "RA_OF_ASC_NODE": 57.6305, "ARG_OF_PERICENTER": 173.3872, "MEAN_ANOMALY": 240.1822, "EPHEMERIS_TYPE": 0, "CLASSIFICATION_TYPE": "U", "NORAD_CAT_ID": 33870, "ELEMENT_SET_NO": 999, "REV_AT_EPOCH": 88158, "BSTAR": 0.00088439902, "MEAN_MOTION_DOT": 3.168e-05, "MEAN_MOTION_DDOT": 0}, "tle": {"line1": "1 33870U 97051AP  25348.20987853  .00003168  00000+0  88440-3 0  9991", "line2": "2 33870  86.3748  57.6305 0021624 173.3872 240.1822 14.45862861881585"}}, "geometry": {"type": "Point", "coordinates": [56.922475917615564, -4.684155877645186]}}, {"type": "Feature", "properties": {"norad_id": 33881, "name": "IRIDIUM 33 DEB", "group": "iridium-33-debris", "lat": -42.15992608118014, "lon": 102.40599980533426, "alt_km": 748.8233347007172, "timestamp": "2025-12-15T04:01:20.836891+00:00", "meta": {"OBJECT_NAME": "IRIDIUM 33 DEB", "OBJECT_ID": "1997-051BA", "EPOCH": "2025-12-14T07:05:00.879648", "MEAN_MOTION": 14.56616261, "ECCENTRICITY": 0.00614646, "INCLINATION": 86.3857, "RA_OF_ASC_NODE": 106.0662, "ARG_OF_PERICENTER": 169.662, "MEAN_ANOMALY": 255.7649, "EPHEMERIS_TYPE": 0, "CLASSIFICATION_TYPE": "U", "NORAD_CAT_ID": 33881, "ELEMENT_SET_NO": 999, "REV_AT_EPOCH": 87523, "BSTAR": 0.002305271, "MEAN_MOTION_DOT": 0.00010572, "MEAN_MOTION_DDOT": 0}, "tle": {"line1": "1 33881U 97051BA  25348.29514907  .00010572  00000+0  23053-2 0  9993", "line2": "2 33881  86.3857 106.0662 0061464 169.6620 255.7649 14.56616261875235"}}, "geometry": {"type": "Point", "coordinates": [102.40599980533426, -42.15992608118014]}}, {"type": "Feature", "properties": {"norad_id": 33884, "name": "IRIDIUM 33 DEB", "group": "iridium-33-debris", "lat": 84.76955305167968, "lon": 52.624614213961934, "alt_km": 634.2151495708677, "timestamp": "2025-12-15T04:01:20.836902+00:00", "meta": {"OBJECT_NAME": "IRIDIUM 33 DEB", "OBJECT_ID": "1997-051BD", "EPOCH": "2025-12-14T08:11:32.925120", "MEAN_MOTION": 14.77472237, "ECCENTRICITY": 0.00095203, "INCLINATION": 86.3703, "RA_OF_ASC_NODE": 9.096, "ARG_OF_PERICENTER": 317.854, "MEAN_ANOMALY": 56.4312, "EPHEMERIS_TYPE": 0, "CLASSIFICATION_TYPE": "U", "NORAD_CAT_ID": 33884, "ELEMENT_SET_NO": 999, "REV_AT_EPOCH": 88871, "BSTAR": 0.0015351824, "MEAN_MOTION_DOT": 0.00010976, "MEAN_MOTION_DDOT": 0}, "tle": {"line1": "1 33884U 97051BD  25348.34135330  .00010976  00000+0  15352-2 0  9992", "line2": "2 33884  86.3703   9.0960 0009520 317.8540  56.4312 14.77472237888710"}}, "geometry": {"type": "Point", "coordinates": [52.624614213961934, 84.76955305167968]}}, {"type": "Feature", "properties": {"norad_id": 33886, "name": "IRIDIUM 33 DEB", "group": "iridium-33-debris", "lat": 10.46504718955581, "lon": 66.87649447644034, "alt_km": 779.6635306454364, "timestamp": "2025-12-15T04:01:20.836913+00:00", "meta": {"OBJECT_NAME": "IRIDIUM 33 DEB", "OBJECT_ID": "1997-051BF", "EPOCH": "2025-12-14T06:30:27.952704", "MEAN_MOTION": 14.36054173, "ECCENTRICITY": 0.00124063, "INCLINATION": 86.383, "RA_OF_ASC_NODE": 66.5843, "ARG_OF_PERICENTER": 236.2835, "MEAN_ANOMALY": 182.7139, "EPHEMERIS_TYPE": 0, "CLASSIFICATION_TYPE": "U", "NORAD_CAT_ID": 33886, "ELEMENT_SET_NO": 999, "REV_AT_EPOCH": 88074, "BSTAR": 0.00025504427, "MEAN_MOTION_DOT": 7.61e-06, "MEAN_MOTION_DDOT": 0}, "tle": {"line1": "1 33886U 97051BF  25348.27115686  .00000761  00000+0  25504-3 0  9990", "line2": "2 33886  86.3830  66.5843 0012406 236.2835 182.7139 14.36054173880744"}}, "geometry": {"type": "Point", "coordinates": [66.87649447644034, 10.46504718955581]}}, {"type": "Feature", "properties": {"norad_id": 33887, "name": "IRIDIUM 33 DEB", "group": "iridium-33-debris", "lat": -42.966030317333804, "lon": -1.104960854199465, "alt_km": 774.9882580319863, "timestamp": "2025-12-15T04:01:20.836923+00:00", "meta": {"OBJECT_NAME": "IRIDIUM 33 DEB", "OBJECT_ID": "1997-051BG", "EPOCH": "2025-12-14T08:14:24.279648", "MEAN_MOTION": 14.37222625, "ECCENTRICITY": 0.00045856, "INCLINATION": 86.3045, "RA_OF_ASC_NODE": 2.7012, "ARG_OF_PERICENTER": 219.5635, "MEAN_ANOMALY": 155.3477, "EPHEMERIS_TYPE": 0, "CLASSIFICATION_TYPE": "U", "NORAD_CAT_ID": 33887, "ELEMENT_SET_NO": 999, "REV_AT_EPOCH": 88188, "BSTAR": 0.00018810675, "MEAN_MOTION_DOT": 5.79e-06, "MEAN_MOTION_DDOT": 0}, "tle": {"line1": "1 33887U 97051BG  25348.34333657  .00000579  00000+0  18811-3 0  9999", "line2": "2 33887  86.3045   2.7012 0004585 219.5635 155.3477 14.37222625881881"}}, "geometry": {"type": "Point", "coordinates": [-1.104960854199465, -42.966030317333804]}}, {"type": "Feature", "properties": {"norad_id": 33953, "name": "IRIDIUM 33 DEB", "group": "iridium-33-debris", "lat": -29.59945244651005, "lon": 50.667464067118004, "alt_km": 721.6011593486592, "timestamp": "2025-12-15T04:01:20.836933+00:00", "meta": {"OBJECT_NAME": "IRIDIUM 33 DEB", "OBJECT_ID": "1997-051BN", "EPOCH": "2025-12-14T05:19:31.719360", "MEAN_MOTION": 14.55346704, "ECCENTRICITY": 0.00183062, "INCLINATION": 86.3848, "RA_OF_ASC_NODE": 53.136, "ARG_OF_PERICENTER": 98.369, "MEAN_ANOMALY": 320.6286, "EPHEMERIS_TYPE": 0, "CLASSIFICATION_TYPE": "U", "NORAD_CAT_ID": 33953, "ELEMENT_SET_NO": 999, "REV_AT_EPOCH": 88325, "BSTAR": 0.0012767998, "MEAN_MOTION_DOT": 5.571e-05, "MEAN_MOTION_DDOT": 0}, "tle": {"line1": "1 33953U 97051BN  25348.22189490  .00005571  00000+0  12768-2 0  9995", "line2": "2 33953  86.3848  53.1360 0018306  98.3690 320.6286 14.55346704883255"}}, "geometry": {"type": "Point", "coordinates": [50.667464067118004, -29.59945244651005]}}, {"type": "Feature", "properties": {"norad_id": 33960, "name": "IRIDIUM 33 DEB", "group": "iridium-33-debris", "lat": 35.92879697924209, "lon": -68.90777328775519, "alt_km": 605.2073035416097, "timestamp": "2025-12-15T04:01:20.836944+00:00", "meta": {"OBJECT_NAME": "IRIDIUM 33 DEB", "OBJECT_ID": "1997-051BV", "EPOCH": "2025-12-14T07:32:08.378304", "MEAN_MOTION": 14.85305975, "ECCENTRICITY": 0.00074993, "INCLINATION": 86.2527, "RA_OF_ASC_NODE": 288.7726, "ARG_OF_PERICENTER": 59.8215, "MEAN_ANOMALY": 94.8869, "EPHEMERIS_TYPE": 0, "CLASSIFICATION_TYPE": "U", "NORAD_CAT_ID": 33960, "ELEMENT_SET_NO": 999, "REV_AT_EPOCH": 88890, "BSTAR": 0.0034026068, "MEAN_MOTION_DOT": 0.00029358, "MEAN_MOTION_DDOT": 0}, "tle": {"line1": "1 33960U 97051BV  25348.31398586  .00029358  00000+0  34026-2 0  9991", "line2": "2 33960  86.2527 288.7726 0007499  59.8215  94.8869 14.85305975888906"}}, "geometry": {"type": "Point", "coordinates": [-68.90777328775519, 35.92879697924209]}}, {"type": "Feature", "properties": {"norad_id": 33966, "name": "IRIDIUM 33 DEB", "group": "iridium-33-debris", "lat": 46.277228912658316, "lon": 48.76771149688874, "alt_km": 726.6997551229542, "timestamp": "2025-12-15T04:01:20.836955+00:00", "meta": {"OBJECT_NAME": "IRIDIUM 33 DEB", "OBJECT_ID": "1997-051CB", "EPOCH": "2025-12-14T04:52:52.286016", "MEAN_MOTION": 14.49602222, "ECCENTRICITY": 0.00075876, "INCLINATION": 86.3927, "RA_OF_ASC_NODE": 45.3993, "ARG_OF_PERICENTER": 183.3114, "MEAN_ANOMALY": 234.5978, "EPHEMERIS_TYPE": 0, "CLASSIFICATION_TYPE": "U", "NORAD_CAT_ID": 33966, "ELEMENT_SET_NO": 999, "REV_AT_EPOCH": 88463, "BSTAR": 0.0006523539, "MEAN_MOTION_DOT": 2.524e-05, "MEAN_MOTION_DDOT": 0}, "tle": {"line1": "1 33966U 97051CB  25348.20338294  .00002524  00000+0  65235-3 0  9998", "line2": "2 33966  86.3927  45.3993 0007587 183.3114 234.5978 14.49602222884634"}}, "geometry": {"type": "Point", "coordinates": [48.76771149688874, 46.277228912658316]}}, {"type": "Feature", "properties": {"norad_id": 34071, "name": "IRIDIUM 33 DEB", "group": "iridium-33-debris", "lat": 67.84895166292556, "lon": -172.25741102829363, "alt_km": 713.8992189917435, "timestamp": "2025-12-15T04:01:20.836965+00:00", "meta": {"OBJECT_NAME": "IRIDIUM 33 DEB", "OBJECT_ID": "1997-051CE", "EPOCH": "2025-12-14T07:37:37.227072", "MEAN_MOTION": 14.49474417, "ECCENTRICITY": 0.00099575, "INCLINATION": 86.3461, "RA_OF_ASC_NODE": 17.1427, "ARG_OF_PERICENTER": 103.385, "MEAN_ANOMALY": 256.8465, "EPHEMERIS_TYPE": 0, "CLASSIFICATION_TYPE": "U", "NORAD_CAT_ID": 34071, "ELEMENT_SET_NO": 999, "REV_AT_EPOCH": 88357, "BSTAR": 0.00068544291, "MEAN_MOTION_DOT": 2.645e-05, "MEAN_MOTION_DDOT": 0}, "tle": {"line1": "1 34071U 97051CE  25348.31779198  .00002645  00000+0  68544-3 0  9990", "line2": "2 34071  86.3461  17.1427 0009957 103.3850 256.8465 14.49474417883579"}}, "geometry": {"type": "Point", "coordinates": [-172.25741102829363, 67.84895166292556]}}]}